[{"OBJECT_NAME":"STARLINK-36545","OBJECT_ID":"2026-012N","EPOCH":"2026-03-09T02:08:59.273952","MEAN_MOTION":15.27585194,"ECCENTRICITY":0.00024901,"INCLINATION":43.006,"RA_OF_ASC_NODE":317.475,"ARG_OF_PERICENTER":266.3239,"MEAN_ANOMALY":93.7328,"EPHEMERIS_TYPE":0,"CLASSIFICATION_TYPE":"U","NORAD_CAT_ID":67505,"ELEMENT_SET_NO":999,"REV_AT_EPOCH":767,"BSTAR":0.0007848828,"MEAN_MOTION_DOT":0.00021403,"MEAN_MOTION_DDOT":0},{"OBJECT_NAME":"SIMSAT 1","OBJECT_ID":"2000-026A","EPOCH":"2026-03-09T17:22:54.646176","MEAN_MOTION":15.27666538,"ECCENTRICITY":0.00084816,"INCLINATION":86.3501,"RA_OF_ASC_NODE":180.5413,"ARG_OF_PERICENTER":14.8337,"MEAN_ANOMALY":345.3157,"EPHEMERIS_TYPE":0,"CLASSIFICATION_TYPE":"U","NORAD_CAT_ID":26365,"ELEMENT_SET_NO":999,"REV_AT_EPOCH":42720,"BSTAR":0.00013499313,"MEAN_MOTION_DOT":3.69e-5,"MEAN_MOTION_DDOT":0}]
